[{"OBJECT_NAME":"TEIKYOSAT-4 (OORURI)","OBJECT_ID":"2021-102B","EPOCH":"2026-03-09T16:12:29.535840","MEAN_MOTION":15.09119208,"ECCENTRICITY":0.00103447,"INCLINATION":97.3797,"RA_OF_ASC_NODE":101.9931,"ARG_OF_PERICENTER":276.5421,"MEAN_ANOMALY":83.463,"EPHEMERIS_TYPE":0,"CLASSIFICATION_TYPE":"U","NORAD_CAT_ID":49396,"ELEMENT_SET_NO":999,"REV_AT_EPOCH":23771,"BSTAR":0.00015739844,"MEAN_MOTION_DOT":2.438e-5,"MEAN_MOTION_DDOT":0},{"OBJECT_NAME":"STARLINK-3172","OBJECT_ID":"2022-005AM","EPOCH":"2026-03-09T21:48:44.375616","MEAN_MOTION":15.08839804,"ECCENTRICITY":0.00014327,"INCLINATION":53.2171,"RA_OF_ASC_NODE":298.1496,"ARG_OF_PERICENTER":83.4009,"MEAN_ANOMALY":276.7147,"EPHEMERIS_TYPE":0,"CLASSIFICATION_TYPE":"U","NORAD_CAT_ID":51139,"ELEMENT_SET_NO":999,"REV_AT_EPOCH":22877,"BSTAR":7.1308665e-5,"MEAN_MOTION_DOT":8.47e-6,"MEAN_MOTION_DDOT":0}]
